QIANFAN-73              
1 63159U 25046A   25340.53207093  .00000152  00000+0  21608-3 0  9991
2 63159  88.9755 320.6655 0016095 136.2173 224.0258 13.50975575 46571
QIANFAN-74              
1 63160U 25046B   25340.58954112  .00000161  00000+0  23048-3 0  9999
2 63160  88.9755 320.5481 0001989  80.7008 279.4368 13.50977932 46648
QIANFAN-75              
1 63161U 25046C   25340.57682000  .00000203  00000+0  29577-3 0  9993
2 63161  88.9757 320.7830 0017124 139.3080 220.9355 13.50976523 46518
QIANFAN-76              
1 63162U 25046D   25340.57339694  .00000071  00000+0  90754-4 0  9991
2 63162  88.9755 320.7642 0014661 138.9547 221.2710 13.50963040 46524
QIANFAN-77              
1 63163U 25046E   25340.52182209  .00000471  00000+0  33284-3 0  9993
2 63163  88.9757 318.8273 0016895  98.3160 261.9933 13.96083010 47581
QIANFAN-78              
1 63164U 25046F   25340.54027329  .00000162  00000+0  23233-3 0  9997
2 63164  88.9755 320.6316 0015968 141.6857 218.5432 13.50975771 46590
QIANFAN-79              
1 63165U 25046G   25340.56894299  .00000154  00000+0  21952-3 0  9995
2 63165  88.9759 320.7359 0015719 139.8959 220.3356 13.50977204 46543
QIANFAN-80              
1 63166U 25046H   25340.58544934  .00000179  00000+0  25878-3 0  9994
2 63166  88.9756 320.4411 0014570 143.3833 216.8317 13.50974741 46700
